{
"type": "FeatureCollection",
"name": "limite_region_centroide",
"crs": { "type": "name", "properties": { "name": "urn:ogc:def:crs:OGC:1.3:CRS84" } },
"features": [
{ "type": "Feature", "properties": { "full_id": "r2749663", "osm_id": "2749663", "osm_type": "relation", "ISO3166-2": "CM-EN", "admin_level": "4", "alt_name:ar": "منطقة أقصى الشمال", "alt_name:de": "Extrême-Nord", "alt_name:en": "Far North Region", "boundary": "administrative", "name": "Extrême-Nord", "name:ar": "الشمال الأقصى", "name:avk": "KamerunaExtremeNordGola", "name:be": "Крайні Паўночны рэгіён", "name:be-tarask": "Ускрайні Паўночны рэгіён", "name:bg": "Далечен Север", "name:br": "Rannvro an Norzh-Pellañ", "name:ca": "Regió de l'Extrem Nord", "name:ceb": "Far North Region", "name:de": "Hoher Norden", "name:en": "Far-North", "name:eo": "Ekstreme norda Kameruno", "name:es": "Región del Extremo Norte", "name:et": "Kaug-Põhjapiirkond", "name:eu": "Iparralde Urruna", "name:fa": "منطقه شمال دور", "name:fi": "Extrême-Nord", "name:fr": "Région de l'Extrême-Nord", "name:frr": "Extrême-Nord", "name:he": "פרובינציית הצפון הרחוק", "name:id": "Region Ujung Utara", "name:it": "Regione dell'Estremo Nord", "name:ja": "極北州", "name:ka": "უკიდურესი ჩრდილოეთის რეგიონი", "name:ko": "최북부주", "name:lt": "Tolimosios Šiaurės regionas", "name:lv": "Galējo Ziemeļu reģions", "name:nl": "Extrême-Nord", "name:no": "Extrême-Nord", "name:pl": "Region Dalekiej Północy", "name:pt": "Extremo Norte", "name:ro": "Provincia Extrem Nord", "name:ru": "Крайнесеверный регион", "name:sv": "Nordligaste regionen", "name:sw": "Mkoa wa Kaskazini ya Mbali", "name:ta": "வட தூர மண்டலம்", "name:tg": "Вилояти Шимоли Дурӣ", "name:tr": "Uzak Kuzey Bölgesi", "name:ur": "بعید شمالی علاقہ", "name:wuu": "极北区", "name:zh": "極北區", "ref:COG": "EN", "short_name": "EN", "type": "boundary", "wikidata": "Q823976", "wikipedia": "fr:Région de l'Extrême-Nord (Cameroun)", "name:ml": "", "name:nn": "", "name:uk": "", "alt_name:fr": "", "name:vi": "" }, "geometry": { "type": "Point", "coordinates": [ 14.532149215358718, 11.080173288558345 ] } },
{ "type": "Feature", "properties": { "full_id": "r2750662", "osm_id": "2750662", "osm_type": "relation", "ISO3166-2": "CM-NO", "admin_level": "4", "alt_name:ar": "المنطقة الشمالية", "alt_name:de": "", "alt_name:en": "North Region", "boundary": "administrative", "name": "Nord", "name:ar": "الشمال", "name:avk": "KamerunaNordGola", "name:be": "Паўночны рэгіён", "name:be-tarask": "Паўночны рэгіён", "name:bg": "Северен регион", "name:br": "", "name:ca": "Regió del Nord", "name:ceb": "North Region", "name:de": "Nord", "name:en": "North", "name:eo": "Norda Kameruno", "name:es": "Región del Norte", "name:et": "Põhjapiirkond", "name:eu": "Iparraldea", "name:fa": "منطقه شمال", "name:fi": "Nord", "name:fr": "Région du Nord", "name:frr": "Nord", "name:he": "פרובינציית הצפון", "name:id": "Region Utara", "name:it": "Regione del Nord", "name:ja": "北部州", "name:ka": "ჩრდილოეთის რეგიონი", "name:ko": "북부주", "name:lt": "Šiaurės regionas", "name:lv": "Ziemeļu reģions", "name:nl": "Nord", "name:no": "Nord", "name:pl": "Region Północny", "name:pt": "Região Norte", "name:ro": "Provincia de Nord", "name:ru": "Северный регион", "name:sv": "Norra regionen", "name:sw": "Mkoa wa Kaskazini", "name:ta": "வடக்கு மண்டலம்", "name:tg": "Вилояти Шимолӣ", "name:tr": "Kuzey Bölgesi", "name:ur": "شمالی علاقہ", "name:wuu": "北部区", "name:zh": "北部區", "ref:COG": "NO", "short_name": "NO", "type": "boundary", "wikidata": "Q502341", "wikipedia": "fr:Région du Nord (Cameroun)", "name:ml": "", "name:nn": "", "name:uk": "", "alt_name:fr": "", "name:vi": "" }, "geometry": { "type": "Point", "coordinates": [ 13.940406341394574, 8.487436782531347 ] } },
{ "type": "Feature", "properties": { "full_id": "r2750694", "osm_id": "2750694", "osm_type": "relation", "ISO3166-2": "CM-AD", "admin_level": "4", "alt_name:ar": "", "alt_name:de": "", "alt_name:en": "Adamawa Region", "boundary": "administrative", "name": "Adamaoua", "name:ar": "محافظة آداماوا", "name:avk": "KamerunaAdamaouaGola", "name:be": "Адамава", "name:be-tarask": "Адамава", "name:bg": "Адамауа", "name:br": "", "name:ca": "Regió d'Adamaua", "name:ceb": "Adamaoua Region", "name:de": "Adamaua", "name:en": "Adamawa", "name:eo": "Regiono Adamaŭa", "name:es": "Región Adamawa", "name:et": "Adamaoua piirkond", "name:eu": "Adamawa", "name:fa": "منطقه آداماوا", "name:fi": "Adamaoua", "name:fr": "Région de l'Adamaoua", "name:frr": "Adamaoua", "name:he": "אדמאווה", "name:id": "Region Adamawa", "name:it": "Regione di Adamaoua", "name:ja": "アダマワ州", "name:ka": "ადამავის რეგიონი", "name:ko": "아다마와주", "name:lt": "Adamavos regionas", "name:lv": "Adamavas reģions", "name:nl": "Adamaoua", "name:no": "Adamaoua", "name:pl": "Region Adamawa", "name:pt": "Adamawa", "name:ro": "Provincia Adamawa", "name:ru": "Адамава", "name:sv": "Adamaouaregionen", "name:sw": "Mkoa wa Adamawa", "name:ta": "அடமாவா மண்டலம்", "name:tg": "Вилояти Адамаоуа", "name:tr": "Adamawa Bölgesi", "name:ur": "آداماوا علاقہ", "name:wuu": "阿达马瓦区", "name:zh": "阿达马瓦区", "ref:COG": "AD", "short_name": "AD", "type": "boundary", "wikidata": "Q351514", "wikipedia": "fr:Région de l'Adamaoua", "name:ml": "അഡമാവാ", "name:nn": "Adamaoua", "name:uk": "Адамауа", "alt_name:fr": "", "name:vi": "" }, "geometry": { "type": "Point", "coordinates": [ 13.139364326549295, 6.848872795332624 ] } },
{ "type": "Feature", "properties": { "full_id": "r2750738", "osm_id": "2750738", "osm_type": "relation", "ISO3166-2": "CM-ES", "admin_level": "4", "alt_name:ar": "", "alt_name:de": "Est", "alt_name:en": "East Region", "boundary": "administrative", "name": "Est", "name:ar": "المنطقة الشرقية", "name:avk": "KamerunaEstGola", "name:be": "Усходні рэгіён", "name:be-tarask": "Усходні рэгіён", "name:bg": "Източен регион", "name:br": "", "name:ca": "Regió Est", "name:ceb": "East Region", "name:de": "Ost", "name:en": "East", "name:eo": "Orienta Kameruno", "name:es": "Región del Este", "name:et": "Idapiirkond", "name:eu": "Ekialdea", "name:fa": "منطقه شرق", "name:fi": "Est", "name:fr": "Région de l'Est", "name:frr": "Est", "name:he": "פרובינציית המזרח", "name:id": "Region Timur", "name:it": "Regione dell'Est", "name:ja": "東部州", "name:ka": "აღმოსავლეთის რეგიონი", "name:ko": "동부주", "name:lt": "Rytų regionas", "name:lv": "Austrumu reģions", "name:nl": "Est", "name:no": "Est", "name:pl": "Region Wschodni", "name:pt": "Região Leste", "name:ro": "Regiunea de Est", "name:ru": "Восточный регион", "name:sv": "Östra regionen", "name:sw": "Mkoa wa Mashariki", "name:ta": "கிழக்கு மண்டலம்", "name:tg": "Вилояти Шарқӣ", "name:tr": "Doğu Bölgesi", "name:ur": "مشرقی علاقہ", "name:wuu": "东部区", "name:zh": "东部区", "ref:COG": "ES", "short_name": "ES", "type": "boundary", "wikidata": "Q845168", "wikipedia": "fr:Région de l'Est (Cameroun)", "name:ml": "", "name:nn": "", "name:uk": "", "alt_name:fr": "", "name:vi": "" }, "geometry": { "type": "Point", "coordinates": [ 14.208298115599359, 3.800458276071467 ] } },
{ "type": "Feature", "properties": { "full_id": "r2750789", "osm_id": "2750789", "osm_type": "relation", "ISO3166-2": "CM-CE", "admin_level": "4", "alt_name:ar": "", "alt_name:de": "", "alt_name:en": "Centre Region", "boundary": "administrative", "name": "Centre", "name:ar": "منطقة المركز", "name:avk": "KamerunaCentreGola", "name:be": "Цэнтральны рэгіён", "name:be-tarask": "Цэнтральны рэгіён", "name:bg": "Централен регион", "name:br": "", "name:ca": "Regió Central", "name:ceb": "Centre Region", "name:de": "Zentrum", "name:en": "Centre", "name:eo": "Centra Kameruno", "name:es": "Región del Centro", "name:et": "Keskpiirkond", "name:eu": "Erdialdea", "name:fa": "منطقه مرکز", "name:fi": "Centre", "name:fr": "Région du Centre", "name:frr": "Centre", "name:he": "פרובינציית המרכז", "name:id": "Region Tengah", "name:it": "Regione del Centro", "name:ja": "中央州", "name:ka": "ცენტრალური რეგიონი", "name:ko": "중앙주", "name:lt": "Centrinis regionas", "name:lv": "Centrālais reģions", "name:nl": "Centre", "name:no": "Centre", "name:pl": "Region Centralny", "name:pt": "Centro", "name:ro": "Provincia Centru", "name:ru": "Центральный регион", "name:sv": "Centrumregionen", "name:sw": "Mkoa wa Kati", "name:ta": "மத்திய மண்டலம்", "name:tg": "Вилояти Марказӣ", "name:tr": "Merkez Bölgesi", "name:ur": "وسطی علاقہ", "name:wuu": "中部区", "name:zh": "中部区", "ref:COG": "CE", "short_name": "CE", "type": "boundary", "wikidata": "Q739951", "wikipedia": "fr:Région du Centre (Cameroun)", "name:ml": "", "name:nn": "", "name:uk": "Центральний регіон", "alt_name:fr": "", "name:vi": "" }, "geometry": { "type": "Point", "coordinates": [ 11.822405542858119, 4.663821279130709 ] } },
{ "type": "Feature", "properties": { "full_id": "r2750833", "osm_id": "2750833", "osm_type": "relation", "ISO3166-2": "CM-SU", "admin_level": "4", "alt_name:ar": "", "alt_name:de": "", "alt_name:en": "South Region", "boundary": "administrative", "name": "Sud", "name:ar": "المنطقة الجنوبية", "name:avk": "KamerunaSudGola", "name:be": "Паўднёвы рэгіён", "name:be-tarask": "Паўднёвы рэгіён", "name:bg": "", "name:br": "", "name:ca": "Regió del Sud", "name:ceb": "South Region", "name:de": "Süd", "name:en": "South", "name:eo": "Suda Kameruno", "name:es": "Región del Sur", "name:et": "Lõunapiirkond", "name:eu": "Hegoaldea", "name:fa": "منطقه جنوب", "name:fi": "Sud", "name:fr": "Région du Sud", "name:frr": "Sud", "name:he": "פרובינציית הדרום", "name:id": "Region Selatan", "name:it": "Regione del Sud", "name:ja": "南部州", "name:ka": "სამხრეთის რეგიონი", "name:ko": "남부주", "name:lt": "Pietų regionas", "name:lv": "Dienvidu reģions", "name:nl": "Sud", "name:no": "Sud", "name:pl": "Region Południowy", "name:pt": "Região Sul", "name:ro": "Provincia de Sud", "name:ru": "Южный регион", "name:sv": "Södra regionen", "name:sw": "Mkoa wa Kusini", "name:ta": "தெற்கு மண்டலம்", "name:tg": "Вилояти Ҷанубӣ", "name:tr": "Güney Bölgesi", "name:ur": "جنوبی علاقہ", "name:wuu": "南部区", "name:zh": "南部区", "ref:COG": "SU", "short_name": "SU", "type": "boundary", "wikidata": "Q857122", "wikipedia": "fr:Région du Sud", "name:ml": "", "name:nn": "", "name:uk": "", "alt_name:fr": "", "name:vi": "" }, "geometry": { "type": "Point", "coordinates": [ 11.491878205084669, 2.757552070319521 ] } },
{ "type": "Feature", "properties": { "full_id": "r2750851", "osm_id": "2750851", "osm_type": "relation", "ISO3166-2": "CM-LT", "admin_level": "4", "alt_name:ar": "", "alt_name:de": "", "alt_name:en": "Littoral Region", "boundary": "administrative", "name": "Littoral", "name:ar": "ليتورال", "name:avk": "KamerunaLittoralGola", "name:be": "Прыбярэжны рэгіён", "name:be-tarask": "Літараль", "name:bg": "Литорал", "name:br": "", "name:ca": "Regió Litoral", "name:ceb": "Littoral Region", "name:de": "Littoral", "name:en": "Littoral", "name:eo": "Marborda Kameruno", "name:es": "Región del Litoral", "name:et": "Rannikupiirkond", "name:eu": "Kostaldea", "name:fa": "منطقه لیتورال", "name:fi": "Littoral", "name:fr": "Région du Littoral", "name:frr": "Littoral", "name:he": "פרובינציית החוף", "name:id": "Region Littoral", "name:it": "Regione del Litorale", "name:ja": "リトラル州", "name:ka": "სანაპირო რეგიონი", "name:ko": "리토랄주", "name:lt": "Pakrantės regionas", "name:lv": "Piekrastes reģions", "name:nl": "Littoral", "name:no": "Littoral", "name:pl": "Region Nadmorski", "name:pt": "Litoral", "name:ro": "Provincia Litoral", "name:ru": "Прибрежный регион", "name:sv": "Kustregionen", "name:sw": "Mkoa wa Pwani", "name:ta": "லிட்டோரல் மண்டலம்", "name:tg": "Вилояти Литторал", "name:tr": "Littoral Bölgesi", "name:ur": "لیتورال علاقہ", "name:wuu": "滨海区", "name:zh": "濱海區", "ref:COG": "LT", "short_name": "LT", "type": "boundary", "wikidata": "Q845172", "wikipedia": "fr:Région du Littoral", "name:ml": "", "name:nn": "", "name:uk": "Прибережний регіон", "alt_name:fr": "", "name:vi": "" }, "geometry": { "type": "Point", "coordinates": [ 10.053031147541425, 4.185538313324758 ] } },
{ "type": "Feature", "properties": { "full_id": "r2750874", "osm_id": "2750874", "osm_type": "relation", "ISO3166-2": "CM-NW", "admin_level": "4", "alt_name:ar": "", "alt_name:de": "Nord-Ouest", "alt_name:en": "Northwest Region", "boundary": "administrative", "name": "Nord-ouest", "name:ar": "المنطقة الشمالية الغربية", "name:avk": "KamerunaNordOuestGola", "name:be": "Паўночна-Заходні рэгіён", "name:be-tarask": "Паўночна-заходні рэгіён", "name:bg": "Северозападен регион", "name:br": "Rannvro ar Gwalarn", "name:ca": "Regió del Nord-oest", "name:ceb": "North-West Region", "name:de": "Nordwest", "name:en": "Northwest", "name:eo": "Nordokcidenta Kameruno", "name:es": "Región del Noroeste", "name:et": "Loodepiirkond", "name:eu": "Ipar-mendebaldea", "name:fa": "منطقه شمال غربی", "name:fi": "Nord-Ouest", "name:fr": "Nord-Ouest", "name:frr": "Nord-Ouest", "name:he": "פרובינציית צפון-מערב", "name:id": "Region Barat Laut", "name:it": "Regione del Nordovest", "name:ja": "北西州", "name:ka": "ჩრდილო-დასავლეთის რეგიონი", "name:ko": "북서부주", "name:lt": "Šiaurės Vakarų regionas", "name:lv": "Ziemeļrietumu reģions", "name:nl": "Nord-Ouest", "name:no": "Nord-Ouest", "name:pl": "Region Północno-Zachodni", "name:pt": "Noroeste", "name:ro": "Provincia de Nord-Vest", "name:ru": "Северо-Западный регион", "name:sv": "Nordvästra regionen", "name:sw": "Mkoa wa Kaskazini-Magharibi", "name:ta": "வடமேற்கு மண்டலம்", "name:tg": "Вилояти Шимоли Ғарбӣ", "name:tr": "Kuzeybatı Bölgesi", "name:ur": "شمال مغربی علاقہ", "name:wuu": "西北区 (喀麦隆)", "name:zh": "西北區", "ref:COG": "NW", "short_name": "NW", "type": "boundary", "wikidata": "Q823946", "wikipedia": "en:Northwest Region (Cameroon)", "name:ml": "", "name:nn": "", "name:uk": "", "alt_name:fr": "Région du Nord-Ouest", "name:vi": "Vùng Tây Bắc (Cameroon)" }, "geometry": { "type": "Point", "coordinates": [ 10.36968058530986, 6.365448553538022 ] } },
{ "type": "Feature", "properties": { "full_id": "r2750875", "osm_id": "2750875", "osm_type": "relation", "ISO3166-2": "CM-SW", "admin_level": "4", "alt_name:ar": "", "alt_name:de": "Sud-Ouest", "alt_name:en": "Southwest Region", "boundary": "administrative", "name": "Sud-ouest", "name:ar": "المنطقة الجنوبية الغربية", "name:avk": "KamerunaSudOuestGola", "name:be": "Паўднёва-Заходні рэгіён", "name:be-tarask": "Паўднёва-заходні рэгіён", "name:bg": "", "name:br": "", "name:ca": "Regió del Sud-oest", "name:ceb": "South-West Region", "name:de": "Südwest", "name:en": "Southwest", "name:eo": "Sudokcidenta Kameruno", "name:es": "Región del Sudoeste", "name:et": "Edelapiirkond", "name:eu": "Hego-mendebaldea", "name:fa": "منطقه جنوب غربی", "name:fi": "Sud-Ouest", "name:fr": "Sud-Ouest", "name:frr": "Sud-Ouest", "name:he": "פרובינציית דרום-מערב", "name:id": "Region Barat Daya", "name:it": "Regione del Sudovest", "name:ja": "南西州", "name:ka": "სამხრეთ-დასავლეთის რეგიონი", "name:ko": "남서부주", "name:lt": "Pietvakarių regionas", "name:lv": "Dienvidrietumu reģions", "name:nl": "Sud-Ouest", "name:no": "Sud-Ouest", "name:pl": "Region Południowo-Zachodni", "name:pt": "Sudoeste", "name:ro": "Provincia de Sud-Vest", "name:ru": "Юго-Западный регион", "name:sv": "Sydvästra regionen", "name:sw": "Mkoa wa Kusini-Magharibi", "name:ta": "தென்மேற்கு மண்டலம்", "name:tg": "Вилояти Ҷануби Ғарбӣ", "name:tr": "Güneybatı Bölgesi", "name:ur": "جنوب مغربی علاقہ", "name:wuu": "西南区", "name:zh": "西南区", "ref:COG": "SW", "short_name": "SW", "type": "boundary", "wikidata": "Q607499", "wikipedia": "en:Southwest Region (Cameroon)", "name:ml": "", "name:nn": "", "name:uk": "Південно-Західний регіон", "alt_name:fr": "Région du Sud-Ouest", "name:vi": "Vùng Tây Nam" }, "geometry": { "type": "Point", "coordinates": [ 9.237439748935522, 5.083536352249034 ] } },
{ "type": "Feature", "properties": { "full_id": "r6312404", "osm_id": "6312404", "osm_type": "relation", "ISO3166-2": "CM-OU", "admin_level": "4", "alt_name:ar": "", "alt_name:de": "", "alt_name:en": "West Region", "boundary": "administrative", "name": "Ouest", "name:ar": "المنطقة الغربية", "name:avk": "KamerunaOuestGola", "name:be": "Заходні рэгіён", "name:be-tarask": "Заходні рэгіён", "name:bg": "", "name:br": "", "name:ca": "Regió Oest", "name:ceb": "West Region", "name:de": "West", "name:en": "West", "name:eo": "Okcidenta Kameruno", "name:es": "Región Occidental", "name:et": "Läänepiirkond", "name:eu": "Mendebaldea", "name:fa": "منطقه غرب", "name:fi": "Ouest", "name:fr": "Région de l'Ouest", "name:frr": "Ouest", "name:he": "פרובינציית המערב", "name:id": "Region Barat", "name:it": "Regione dell'Ovest", "name:ja": "西部州", "name:ka": "დასავლეთის რეგიონი", "name:ko": "서부주", "name:lt": "Vakarų regionas", "name:lv": "Rietumu reģions", "name:nl": "Ouest", "name:no": "Ouest", "name:pl": "Region Zachodni", "name:pt": "Oeste", "name:ro": "Provincia de Vest", "name:ru": "Западный регион", "name:sv": "Västra regionen", "name:sw": "Mkoa wa Magharibi", "name:ta": "மேற்கு மண்டலம்", "name:tg": "Вилояти Ғарбӣ", "name:tr": "Batı Bölgesi", "name:ur": "مغربی علاقہ", "name:wuu": "西部区", "name:zh": "西部区", "ref:COG": "OU", "short_name": "OU", "type": "boundary", "wikidata": "Q165784", "wikipedia": "fr:Région de l'Ouest (Cameroun)", "name:ml": "", "name:nn": "", "name:uk": "", "alt_name:fr": "", "name:vi": "" }, "geometry": { "type": "Point", "coordinates": [ 10.648980540376941, 5.497660247047648 ] } }
]
}
